STARLINK-1559           
1 46077U 20055BC  26068.23360559  .00042685  00000+0  14779-2 0  9995
2 46077  53.0254  76.0659 0004229  33.9710 326.1559 15.29461733309518
STARLINK-32412          
1 61680U 24193V   26068.36743577  .00004126  00000+0  15132-3 0  9991
2 61680  53.1592  92.7577 0001390 103.1881 256.9275 15.30208553 76472
